0 DELTA 1 DEB
1  7177U 73086EP  20126.84762458 -.00000619 +00000-0 -13217-2 0  9995
2  7177 102.0235 170.7621 0250512 057.5515 356.5868 13.13367966211497
0 DELTA 1 DEB
1  7179U 73086EQ  20126.74047617 +.00002771 +00000-0 +43898-2 0  9996
2  7179 102.6133 144.4506 0080292 113.3080 310.8380 13.49674862183884
0 DELTA 1 DEB
1  7180U 73086ER  20126.66667344 -.00000354 +00000-0 -13201-2 0  9996
2  7180 102.2314 023.2768 0148868 236.9578 150.3945 12.77099174155346
0 DELTA 1 DEB
1  7181U 73086ES  20126.73481390 +.00000005 +00000-0 +32526-3 0  9993
2  7181 102.4570 123.6290 0101988 350.4547 186.2178 12.56312595129864
0 DELTA 1 DEB
1  7182U 73086ET  20126.72467444 -.00000294 +00000-0 -88762-3 0  9992
2  7182 102.4866 036.6387 0339173 262.0066 118.7535 12.75284683403034
0 DELTA 1 DEB
1  7183U 73086EU  20126.40937595 +.00000136 +00000-0 +93621-3 0  9990
2  7183 102.3936 325.7058 0125693 248.5526 231.7153 12.68259578141352
0 DELTA 1 DEB
1  7184U 73086EV  20127.03272549  .00000625  00000-0  19952-2 0  9999
2  7184 102.3145 139.3691 0203744 124.6170 307.4679 13.01775063192776
0 DELTA 1 DEB
1  7185U 73086EW  20126.69759497 +.00000012 +00000-0 +48063-3 0  9999
2  7185 101.8600 018.3804 0156187 045.2091 330.1942 12.22802123068898
0 DELTA 1 DEB
1  7186U 73086EX  20127.10271133  .00000870  00000-0  27776-2 0  9992
2  7186 101.7935  77.3902 0225801 211.6594 217.7812 12.98567296188688
0 DELTA 1 DEB
1  7190U 73086EY  20126.68622798 -.00000007 +00000-0 +61779-4 0  9992
2  7190 102.7206 032.8269 0250898 351.7609 007.9441 13.65767672273760
0 DELTA 1 DEB
1  7191U 73086EZ  20126.89599194  .00000135  00000-0  17248-2 0  9990
2  7191 102.1142  95.5023 0248478 315.5452  70.3328 12.12109682628026
0 DELTA 1 DEB
1  7192U 73086FA  20126.70144194 -.00000055 +00000-0 -30789-3 0  9996
2  7192 102.1980 186.4858 0443900 180.1698 340.5142 11.59766631968169
0 DELTA 1 DEB
1  7193U 73086FB  20127.21471997 -.00000027  00000-0  12016-3 0  9999
2  7193 101.8128 343.8570 0300020 180.3760 307.1079 12.07874516 45224
0 DELTA 1 DEB
1  7194U 73086FC  20126.28065824 -.00000181 +00000-0 -22754-2 0  9995
2  7194 102.6998 052.8995 0538777 308.9055 209.7448 11.49473152947194
0 DELTA 1 DEB
1  7195U 73086FD  20126.78887864 +.00000831 +00000-0 +10927-2 0  9996
2  7195 103.1871 067.9592 0318973 097.3339 266.4143 13.46613782253320
0 DELTA 1 DEB
1  7196U 73086FE  20126.99421594 -.00000050  00000-0 -22305-4 0  9994
2  7196 102.1883  45.9081 0052818  60.8144   2.1950 12.46914437115827
0 DELTA 1 DEB
1  7198U 73086FG  20127.10711410 -.00000342  00000-0 -10968-2 0  9993
2  7198 102.3402 172.1441 0143434 315.4866  99.7238 12.87121774171334
0 DELTA 1 DEB
1  7200U 73086FJ  20126.77184734 -.00000098 +00000-0 -59498-3 0  9992
2  7200 102.4881 195.4996 0305165 183.2082 296.4175 12.01378634034064
0 DELTA 1 DEB
1  7202U 73086FL  20126.86486948 +.00000421 +00000-0 +92499-3 0  9992
2  7202 102.0400 095.8232 0295865 228.5183 158.4357 13.21435500226268
0 DELTA 1 DEB
1  7203U 73086FM  20126.79980245 +.00000118 +00000-0 +18215-3 0  9991
2  7203 101.9953 073.2521 0451987 171.0150 189.9409 13.38914203261486
0 METEOR 1-16
1  7209U 74011A   20126.94901792 -.00000034  00000-0 -24265-4 0  9995
2  7209  81.2292  62.3654 0037833 282.7911  76.9036 14.13911281379847
0 SL-3 R/B
1  7210U 74011B   20126.61168418 +.00000005 +00000-0 -36585-5 0  9997
2  7210 081.2351 096.1045 0079775 262.1040 097.1073 14.13088309378492
0 MIRANDA (X-4)
1  7213U 74013A   20127.20842541  .00000044  00000-0  23778-4 0  9995
2  7213  97.7922 118.0385 0117826 349.5138  10.3598 14.42978921417831
0 OPS 8579 (DMSP 5B F5)
1  7218U 74015A   20126.86743360 +.00000002 +00000-0 +19205-4 0  9996
2  7218 099.0942 100.8116 0056365 310.4831 049.1445 14.30692541401495
0 THOR BURNER 2A R/B
1  7219U 74015B   20126.67148461 -.00000003 +00000-0 +18614-4 0  9992
2  7219 099.0620 000.3037 0063585 257.7644 101.6409 14.25116410395038
0 SCOUT D-1 R/B
1  7228U 74013B   20126.88975982 +.00000048 +00000-0 +25302-4 0  9999
2  7228 097.8236 101.5943 0110474 067.3104 293.9722 14.41855366395775
0 COSMOS 641
1  7265U 74024A   20126.68434499 -.00000019 +00000-0 -16355-4 0  9991
2  7265 074.0171 091.2932 0059626 079.0325 094.0540 12.57311825112878
0 COSMOS 642
1  7266U 74024B   20126.91036300 -.00000027 +00000-0 -52552-4 0  9995
2  7266 074.0171 090.1918 0103158 021.3878 035.7606 12.65790768127118
0 COSMOS 643
1  7267U 74024C   20126.83260426 -.00000026 +00000-0 -50058-4 0  9993
2  7267 074.0170 271.5758 0082863 232.1007 235.9716 12.61545198119972
0 COSMOS 644
1  7268U 74024D   20126.84024581 +.00000001 +00000-0 +91230-4 0  9993
2  7268 074.0169 181.6121 0093817 131.0754 229.8457 12.63646120123566
0 COSMOS 645
1  7269U 74024E   20126.79706575 +.00000001 +00000-0 +10237-3 0  9995
2  7269 074.0199 358.4166 0072359 332.9085 101.7260 12.59495909116496
0 COSMOS 646
1  7270U 74024F   20126.75612928 -.00000003 +00000-0 +82309-4 0  9994
2  7270 074.0174 188.7394 0051927 201.1100 293.9592 12.54984018108987
0 COSMOS 647
1  7271U 74024G   20126.83282689 -.00000021 +00000-0 -30812-4 0  9994
2  7271 074.0155 279.1651 0039473 304.5004 207.9644 12.52833059105347
0 COSMOS 648
1  7272U 74024H   20126.81246083 -.00000011  00000-0  30958-4 0  9990
2  7272  74.0213  23.8904 0032616  83.0676 342.7390 12.50335497101437
0 SL-8 R/B
1  7273U 74024J   20126.73264316 -.00000111 +00000-0 -80809-3 0  9992
2  7273 074.0206 122.5493 0075631 001.1032 171.7423 12.30446161067999
0 METEOR 1-17
1  7274U 74025A   20127.02389257 -.00000009  00000-0 -12478-4 0  9993
2  7274  81.2037 313.7753 0018765 154.9543 205.2542 14.08346131364138
0 SL-3 R/B
1  7275U 74025B   20126.81769314 -.00000002 +00000-0 -86531-5 0  9991
2  7275 081.2465 015.3027 0056931 150.7479 209.6899 14.06648685361173
0 COSMOS 650
1  7281U 74028A   20126.82122809 -.00000014 +00000-0 +13925-4 0  9992
2  7281 074.0457 027.2272 0021528 309.1774 119.3845 12.69531333132731
0 SL-8 R/B
1  7284U 74028B   20126.94336684 +.00000063 +00000-0 +39631-3 0  9990
2  7284 074.0389 301.2055 0017092 194.8729 319.4021 12.71556435135940
0 COSMOS 651
1  7291U 74029A   20126.55461895 -.00000107 +00000-0 -11937-4 0  9990
2  7291 064.9718 072.2749 0022403 066.0780 294.2628 13.92925935339595
0 COSMOS 654
1  7297U 74032A   20127.00790144 -.00000093  00000-0 -47603-5 0  9997
2  7297  64.9483 284.1142 0071935 317.7955 176.1598 13.79478233317123
0 COSMOS 660
1  7337U 74044A   20127.10666132  .00000478  00000-0  23622-4 0  9994
2  7337  82.9471 348.6158 0540954 244.2458 110.1972 14.39097795318168
0 COSMOS 663
1  7349U 74048A   20126.82913861 +.00000022 +00000-0 +71100-5 0  9993
2  7349 082.9540 029.2464 0025417 012.5700 029.5833 13.75594427301140
0 SL-8 R/B
1  7350U 74048B   20126.79231858 +.00000100 +00000-0 +84726-4 0  9994
2  7350 082.9446 339.6498 0015746 235.7744 241.3269 13.77729728304723
0 METEOR 1-18
1  7363U 74052A   20127.04046058  .00000033  00000-0  14395-4 0  9998
2  7363  81.2279 351.5159 0016751 228.7857 131.1864 13.99867280339921
0 SL-3 R/B
1  7364U 74052B   20126.71065012 -.00000091  00000-0 -62911-4 0  9996
2  7364  81.2344 207.8300 0050982  65.5500 295.0975 14.06024992349414
0 OPS 6983 (DMSP 5C F1)
1  7411U 74063A   20126.62912113  .00000052  00000-0  38335-4 0  9992
2  7411  98.6998 326.2657 0042879  72.9957 287.5916 14.27915510375732
0 THOR BURNER 2A R/B
1  7412U 74063B   20127.00688012  .00000005  00000-0  21857-4 0  9993
2  7412  98.7708 326.8173 0044873 324.2077  35.6096 14.22922859371662
0 COSMOS 675
1  7424U 74069A   20126.88689486 -.00000026 +00000-0 -47096-4 0  9991
2  7424 074.0619 042.5774 0038412 180.9153 242.4324 12.67150320113294
0 SL-8 R/B
1  7426U 74069B   20126.75343390 +.00000049 +00000-0 +33510-3 0  9998
2  7426 074.0575 338.2666 0043846 099.1051 329.7841 12.68820869500877
0 COSMOS 676
1  7433U 74071A   20126.69365732 +.00000005 +00000-0 +11288-4 0  9997
2  7433 074.0489 219.7647 0014847 256.9437 103.0057 14.32580756382951
0 SL-8 R/B
1  7434U 74071B   20126.83382379 -.00000031 +00000-0 -17788-5 0  9993
2  7434 074.0473 078.8933 0019467 089.4819 270.8564 14.36733161387756
0 COSMOS 677
1  7435U 74072A   20126.91063642 -.00000030 +00000-0 -80257-4 0  9992
2  7435 074.0348 085.2860 0045174 217.1557 172.8926 12.57986203095333
0 COSMOS 678
1  7436U 74072B   20127.20510163 -.00000012  00000-0  24009-4 0  9993
2  7436  74.0376  34.2520 0041169  75.9525  78.0725 12.41764008 68599
0 COSMOS 679
1  7437U 74072C   20126.83325028 -.00000018 +00000-0 -15196-4 0  9990
2  7437 074.0334 287.4277 0028141 324.3178 035.5988 12.44386077072699
0 COSMOS 680
1  7438U 74072D   20127.21199001 -.00000004  00000-0  80304-4 0  9991
2  7438  74.0352 196.0192 0016178 208.9618 217.5669 12.46606462 76646
0 COSMOS 681
1  7439U 74072E   20126.85288851 -.00000016 +00000-0 -46377-5 0  9990
2  7439 074.0338 096.9950 0004037 155.8433 225.0198 12.49033535080461
0 COSMOS 682
1  7440U 74072F   20126.86635715 -.00000013 +00000-0 +18360-4 0  9994
2  7440 074.0365 005.0057 0009163 178.3552 262.5205 12.51258643084123
0 COSMOS 683
1  7441U 74072G   20126.79392853 -.00000032 +00000-0 -10101-3 0  9996
2  7441 074.0340 273.4217 0020220 072.9082 287.4183 12.53477422087797
0 COSMOS 684
1  7442U 74072H   20126.65058264 +.00000002 +00000-0 +10876-3 0  9991
2  7442 074.0343 182.0116 0032820 334.9704 141.0378 12.55679235091373
0 SL-8 R/B
1  7443U 74072J   20126.84161847 -.00000020 +00000-0 -49138-4 0  9991
2  7443 074.0364 068.3825 0132353 214.8449 204.4245 12.22812336037028
0 COSMOS 689
1  7476U 74079A   20126.88983353 +.00000029 +00000-0 +15260-4 0  9998
2  7476 082.9459 023.5204 0029630 201.5183 206.8980 13.72156446280089
0 SL-8 R/B
1  7477U 74079B   20126.71548641 -.00000025 +00000-0 -42618-4 0  9993
2  7477 082.9430 344.1333 0034692 050.0625 018.4839 13.74087529283008
0 DELTA 1 DEB
1  7488U 73086FU  20126.53547709 +.00006822 +00000-0 +13867-1 0  9996
2  7488 101.8940 126.3546 0360526 249.9629 106.2327 13.12116240372905
0 DELTA 1 DEB
1  7489U 73086FV  20126.71825203 -.00000034 +00000-0 +10234-3 0  9992
2  7489 102.4162 100.3087 0060965 350.0015 183.9245 12.29564818084791
